OBJECT_NAME,OBJECT_ID,EPOCH,MEAN_MOTION,ECCENTRICITY,INCLINATION,RA_OF_ASC_NODE,ARG_OF_PERICENTER,MEAN_ANOMALY,EPHEMERIS_TYPE,CLASSIFICATION_TYPE,NORAD_CAT_ID,ELEMENT_SET_NO,REV_AT_EPOCH,BSTAR,MEAN_MOTION_DOT,MEAN_MOTION_DDOT
STARLINK-35774,2025-247U,2026-06-26T22:01:51.356928,15.34369073,.0000921,53.1606,43.6200,85.6002,274.5105,0,U,66283,999,3776,.71558E-3,.23854E-3,0
STARLINK-35830,2025-247V,2026-06-26T22:20:02.467104,15.34391562,.0001054,53.1587,43.6967,90.0380,270.0743,0,U,66284,999,3776,.76432E-3,.25529E-3,0
STARLINK-35819,2025-247W,2026-06-26T22:29:07.509408,15.34381980,.0001169,53.1603,43.7338,87.8265,272.2872,0,U,66285,999,3776,.74394E-3,.24828E-3,0
STARLINK-35783,2025-247X,2026-06-27T04:00:03.000096,15.33533275,.0000871,53.1602,42.8578,77.9173,11.2665,0,U,66286,999,581,.79844E-3,.25964E-3,0
STARLINK-34884,2025-247Y,2026-06-27T04:10:16.790016,15.34390783,.0001454,53.1587,40.9538,110.4215,249.6944,0,U,66287,999,3782,.94228E-3,.31585E-3,0
STARLINK-34896,2025-247Z,2026-06-26T21:49:02.116128,15.34383005,.00008,53.1591,42.1435,95.9176,264.1917,0,U,66288,999,3778,.68488E-3,.22821E-3,0
STARLINK-35802,2025-247AA,2026-06-26T21:39:56.520864,15.34393468,.000096,53.1598,42.1039,84.5992,275.5120,0,U,66289,999,3778,.11736E-2,.39475E-3,0
STARLINK-35799,2025-247AB,2026-06-26T21:33:53.377344,15.34365268,.000105,53.1597,42.0766,69.1030,291.0085,0,U,66290,999,3783,.56815E-3,.18847E-3,0
STARLINK-35800,2025-247AC,2026-06-27T02:00:07.945920,15.34404062,.000096,53.1597,41.0978,79.5008,280.6102,0,U,66291,999,3785,.11425E-2,.38427E-3,0
STARLINK-35798,2025-247AD,2026-06-26T21:24:47.764800,15.34377191,.0001017,53.1597,42.0370,87.6342,272.4777,0,U,66292,999,3777,.12272E-2,.41284E-3,0
SEMI-1L,2025-248B,2026-06-26T23:14:09.189888,15.21094767,.0002806,45.4068,68.9539,142.6204,217.4879,0,U,66294,999,3600,.28797E-3,.6239E-4,0
LEMUR-2-AFFIE-WAUWIE,2025-248C,2026-06-26T16:05:37.034592,15.27531092,.00077086,45.3937,63.5971,149.2516,210.8826,0,U,66295,999,3604,.84292418E-3,.22909E-3,0
BANDWAGON-4 OBJECT D,2025-248D,2026-06-26T16:06:30.894624,15.21790527,.0003866,45.4044,69.3925,126.3377,233.7867,0,U,66296,999,3597,.29264555E-3,.648E-4,0
SEMI-1N,2025-248E,2026-06-26T23:13:35.101632,15.21110516,.0009041,45.4093,65.7900,99.7167,260.4741,0,U,66297,999,3604,.29756E-3,.6463E-4,0
SEMI-1P,2025-248F,2026-06-26T16:56:12.635520,15.21131378,.00116199,45.3812,68.6697,85.7175,274.5039,0,U,66298,999,3598,.26124101E-3,.5645E-4,0
FGN-100-D2,2025-248G,2026-06-26T17:56:53.440800,15.20532425,.00040801,45.4000,69.8484,104.5954,255.5385,0,U,66299,999,3597,.20784991E-3,.4348E-4,0
ICEYE-X65,2025-248H,2026-06-27T00:29:20.532192,15.07808490,.0004213,45.4045,82.4703,85.1524,274.9838,0,U,66300,999,3700,.27915E-3,.4094E-4,0
ICEYE-X66,2025-248J,2026-06-27T00:47:39.917760,15.09052072,.0003995,45.4008,81.6739,78.5954,281.5376,0,U,66301,999,3699,.27362E-3,.4152E-4,0
ICEYE-X67,2025-248K,2026-06-26T23:47:34.348128,15.09031010,.0005497,45.4055,81.4636,83.6660,276.4848,0,U,66302,999,3700,.2885E-3,.4389E-4,0
STARCLOUD-1,2025-248L,2026-06-26T17:54:31.684320,15.21364712,.00043664,45.4006,69.0266,97.0385,263.0999,0,U,66303,999,3599,.25329373E-3,.5498E-4,0
BANDWAGON-4 OBJECT M,2025-248M,2026-06-24T10:44:03.708096,15.27909966,.00093097,45.4206,74.1615,110.4484,249.7406,0,U,66304,999,3444,.59999504E-3,.164E-3,0
BANDWAGON-4 OBJECT N,2025-248N,2026-06-26T17:20:54.757536,15.28152402,.00096058,45.4226,61.6775,112.6386,247.5521,0,U,66305,999,3393,.61753962E-3,.17018E-3,0
BANDWAGON-4 OBJECT P,2025-248P,2026-06-26T23:06:27.234144,15.27668051,.0012142,45.4018,60.7833,126.3421,233.8591,0,U,66306,999,3609,.6445E-3,.17525E-3,0
BANDWAGON-4 OBJECT Q,2025-248Q,2026-06-26T23:37:19.850592,15.27452404,.0010128,45.3906,60.8252,122.7209,237.4658,0,U,66307,999,3610,.63238E-3,.17065E-3,0
TOMORROW-S8,2025-248R,2026-06-26T23:00:07.756704,15.20585175,.0003637,45.3971,68.8160,83.2111,276.9189,0,U,66308,999,3600,.24384E-3,.5158E-4,0
TOMORROW-S9,2025-248S,2026-06-26T23:46:12.985248,15.20598314,.0002541,45.4052,69.2016,126.6556,233.4564,0,U,66309,999,3600,.20654E-3,.4327E-4,0
CMS-03 (GSAT-7R),2025-249B,2026-06-27T04:18:09.436896,1.00271928,.0002173,0.0676,263.7731,165.0410,344.9886,0,U,66311,999,244,0,-.65E-6,0
YAOGAN-46,2025-250A,2026-06-26T13:34:46.104096,5.31203799,.0004675,20.0854,331.9681,147.0522,212.9943,0,U,66313,999,1259,0,-.36E-6,0
SENTINEL-1D,2025-251A,2026-06-27T00:59:28.744224,14.59198019,.0001368,98.1826,185.2623,89.9271,270.2085,0,U,66315,999,3416,.11824E-4,.1E-6,0
QPS-SAR-14 (YACHIHOKO-I),2025-252A,2026-06-26T23:38:22.115616,14.99758423,.0006996,42.0037,77.9531,311.5234,48.4990,0,U,66316,999,3498,.3244E-3,.3895E-4,0
STARLINK-35442,2025-253A,2026-06-27T02:24:27.731808,15.27575129,.0001649,43.0043,314.9476,271.7073,88.3590,0,U,66319,999,3697,.10942E-2,.29967E-3,0
STARLINK-34616,2025-253B,2026-06-26T18:50:07.069056,15.27568177,.0001512,42.9995,316.0119,257.2497,102.8185,0,U,66320,999,3701,.87815336E-3,.23973E-3,0
STARLINK-34615,2025-253C,2026-06-27T01:43:44.704416,15.27573137,.0001623,42.9966,314.7071,283.3857,76.6814,0,U,66321,999,3697,.61391E-3,.16666E-3,0
STARLINK-35292,2025-253D,2026-06-26T17:36:18.848736,15.27572823,.00017083,43.0006,316.4937,276.8833,83.1825,0,U,66322,999,3692,.96531545E-3,.26391E-3,0
STARLINK-35309,2025-253E,2026-06-27T02:26:18.335040,15.27577421,.000212,43.0075,314.9452,271.5026,88.5582,0,U,66323,999,3697,.66544E-3,.18093E-3,0
STARLINK-35506,2025-253F,2026-06-26T18:55:39.722880,15.27584906,.00017847,43.0008,316.0406,265.8490,94.2157,0,U,66324,999,3693,.95845454E-3,.2621E-3,0
STARLINK-35504,2025-253G,2026-06-27T02:30:01.224576,15.27591513,.0000746,43.0046,314.9741,306.1471,53.9311,0,U,66325,999,3697,.11577E-2,.31742E-3,0
STARLINK-35479,2025-253H,2026-06-27T01:54:50.069088,15.27609863,.0001448,43.0017,314.7828,265.9035,94.1651,0,U,66326,999,3697,.80584E-3,.21999E-3,0
STARLINK-35507,2025-253J,2026-06-26T17:32:36.735072,15.27576287,.00017253,42.9994,316.4678,273.0040,87.0614,0,U,66327,999,3692,.10766395E-2,.2948E-3,0
STARLINK-35460,2025-253K,2026-06-27T04:00:03.000096,15.27585923,.0001525,43.0032,314.5162,278.7957,107.9736,0,U,66328,999,585,.57332E-3,.15551E-3,0
STARLINK-35505,2025-253L,2026-06-27T01:49:18.126336,15.27576624,.0001442,43.0011,314.7547,285.4861,74.5832,0,U,66329,999,3697,.11791E-2,.32324E-3,0
STARLINK-35512,2025-253M,2026-06-27T02:09:40.232736,15.27571583,.0001469,43.0032,314.8670,264.2232,95.8452,0,U,66330,999,3697,.68991E-3,.18766E-3,0
STARLINK-35257,2025-253N,2026-06-26T19:01:12.636768,15.27588077,.0002166,43.0025,316.0658,256.5180,103.5430,0,U,66331,999,3693,.7427351E-3,.20238E-3,0
STARLINK-35322,2025-253P,2026-06-26T19:16:01.221888,15.27579415,.00014394,43.0002,316.1491,254.9931,105.0761,0,U,66332,999,3693,.96659722E-3,.26432E-3,0
STARLINK-35400,2025-253Q,2026-06-27T02:37:24.504096,15.27578174,.0001611,43.0024,315.0077,277.0318,83.0351,0,U,66333,999,3697,.10913E-2,.2989E-3,0
STARLINK-35407,2025-253R,2026-06-26T19:04:54.949152,15.27589082,.00017869,43.0009,316.0918,270.5494,89.5153,0,U,66334,999,3693,.87518132E-3,.23906E-3,0
STARLINK-35417,2025-253S,2026-06-26T16:28:02.184960,15.27604754,.00014955,43.0021,316.9917,267.1630,92.9050,0,U,66335,999,3691,.9430173E-3,.25798E-3,0
STARLINK-35404,2025-253T,2026-06-26T17:49:15.391200,15.27585172,.00019687,42.9996,316.5495,259.1653,100.8977,0,U,66336,999,3692,.10666358E-2,.29211E-3,0
STARLINK-34783,2025-253U,2026-06-27T02:35:33.870624,15.27574327,.0001751,43.0041,315.0015,286.5325,73.5334,0,U,66337,999,3697,.64919E-3,.17642E-3,0
STARLINK-35477,2025-253V,2026-06-27T01:38:12.071328,15.27571269,.0001673,43.0016,314.7021,284.2546,75.8120,0,U,66338,999,3697,.59438E-3,.16126E-3,0
STARLINK-35443,2025-253W,2026-06-27T01:47:25.812384,15.27586589,.0001635,42.9998,314.7419,257.5690,102.4979,0,U,66339,999,3697,.56834E-3,.15413E-3,0
STARLINK-35218,2025-253X,2026-06-27T04:00:03.000096,15.27581740,.0001404,43.0032,314.5281,278.0315,101.6666,0,U,66340,999,570,.46802E-3,.1264E-3,0
STARLINK-35522,2025-253Y,2026-06-27T02:05:57.421824,15.27576429,.0001434,43.0018,314.8440,281.3837,78.6854,0,U,66341,999,3697,.11088E-2,.30373E-3,0
STARLINK-35535,2025-253Z,2026-06-27T01:58:33.381120,15.27574462,.0001529,43.0015,314.8027,286.9433,73.1251,0,U,66342,999,3697,.81359E-3,.2219E-3,0
STARLINK-35467,2025-253AA,2026-06-27T02:15:12.343104,15.27577924,.0001141,43.0025,314.8919,272.4517,87.6204,0,U,66343,999,3697,.59414E-3,.16122E-3,0
STARLINK-35511,2025-253AB,2026-06-26T17:17:48.464448,15.27568477,.00015534,43.0025,316.3822,270.9704,89.0970,0,U,66344,999,3692,.95425703E-3,.26081E-3,0
STARLINK-35440,2025-253AC,2026-06-27T02:00:24.208128,15.27572044,.0001728,43.0008,314.8109,276.1986,83.8669,0,U,66345,999,3697,.64086E-3,.1741E-3,0
STARLINK-35482,2025-253AD,2026-06-26T17:38:09.787200,15.27574494,.00011642,42.9988,316.4943,297.6727,62.4006,0,U,66346,999,3692,.63156635E-3,.17155E-3,0
STARLINK-35438,2025-253AE,2026-06-26T18:59:20.541408,15.27600135,.00012603,43.0023,316.0490,256.0527,104.0184,0,U,66347,999,3693,.52482356E-3,.14217E-3,0
STARLINK-35849,2025-254A,2026-06-27T04:03:07.866720,15.30166404,.0000814,53.1573,84.2037,66.6901,293.4185,0,U,66348,999,3689,.59498E-3,.17285E-3,0
STARLINK-35848,2025-254B,2026-06-27T01:18:59.408064,15.31699417,.0001258,53.1612,84.2063,102.2432,257.8710,0,U,66349,999,3572,.63732E-3,.19463E-3,0
STARLINK-35829,2025-254C,2026-06-27T00:58:49.338048,15.31688891,.0001555,53.1583,84.1218,99.5504,260.5673,0,U,66350,999,3572,.72957E-3,.22334E-3,0
STARLINK-35828,2025-254D,2026-06-27T00:18:29.312928,15.31700690,.0001229,53.1591,83.9430,103.4007,256.7131,0,U,66351,999,3572,.7332E-3,.22456E-3,0
STARLINK-35850,2025-254E,2026-06-26T23:40:32.990880,15.30187958,.0001189,53.1586,84.4846,68.2408,291.8719,0,U,66352,999,3571,-.49637E-3,-.15025E-3,0
STARLINK-35869,2025-254F,2026-06-26T23:31:27.298848,15.30181028,.0001189,53.1588,84.4445,92.9703,267.1434,0,U,66353,999,3571,.91017E-3,.26679E-3,0
